NORAD_CAT_ID,OBJECT_NAME,OBJECT_TYPE,EPOCH,MEAN_MOTION,ECCENTRICITY,INCLINATION,RA_OF_ASC_NODE,ARG_OF_PERICENTER,MEAN_ANOMALY,BSTAR,MEAN_MOTION_DOT,MEAN_MOTION_DDOT,TLE_LINE0,TLE_LINE1,TLE_LINE2,SEMIMAJOR_AXIS,PERIOD,APOGEE,PERIGEE,DECAYED
50161.0,STARLINK-3304,PAYLOAD,2022-01-17 22:00:00,15.69891789,0.0001173,53.2177,215.2279,79.8911,206.4406,-0.005864,-0.00662018,0.0,0 STARLINK-3304,1 50161U 21125F   22017.91667824 -.00662018  00000-0 -58640-2 0  9999,2 50161  53.2177 215.2279 0001173  79.8911 206.4406 15.69891789  7614,6737.344,91.726,359.999,358.418,0.0
50161.0,STARLINK-3304,PAYLOAD,2022-01-18 14:00:01,15.68957219,0.0001152,53.2175,211.9439,70.5436,24.5642,-0.0060654,-0.00658851,0.0,0 STARLINK-3304,1 50161U 21125F   22018.58334491 -.00658851  00000-0 -60654-2 0  9992,2 50161  53.2175 211.9439 0001152  70.5436  24.5642 15.68957219  3707,6740.019,91.781,362.66,361.107,0.0
50161.0,STARLINK-3304,PAYLOAD,2022-01-18 22:00:00,15.68489465,0.0001279,53.2174,210.3065,67.3259,111.3275,-0.0061647,-0.00656967,0.0,0 STARLINK-3304,1 50161U 21125F   22018.91667824 -.00656967  00000-0 -61647-2 0  9997,2 50161  53.2174 210.3065 0001279  67.3259 111.3275 15.68489465  3699,6741.359,91.808,364.086,362.361,0.0
50161.0,STARLINK-3304,PAYLOAD,2022-01-19 06:00:02,15.67903725,0.0001048,53.2176,208.6682,72.0803,189.694,-0.0047842,-0.00506838,0.0,0 STARLINK-3304,1 50161U 21125F   22019.25002315 -.00506838  00000-0 -47842-2 0  9995,2 50161  53.2176 208.6682 0001048  72.0803 189.6940 15.67903725  7823,6743.038000000001,91.842,365.609,364.196,0.0
50161.0,STARLINK-3304,PAYLOAD,2022-01-19 14:00:01,15.67460449,0.0001225,53.2176,207.03,95.9831,248.1402,-0.0052081,-0.00539672,0.0,0 STARLINK-3304,1 50161U 21125F   22019.58334491 -.00539672  00000-0 -52081-2 0  9997,2 50161  53.2176 207.0300 0001225  95.9831 248.1402 15.67460449  7875,6744.309,91.868,367.0,365.348,0.0
50161.0,STARLINK-3304,PAYLOAD,2022-01-19 22:00:00,15.67090076,0.0001055,53.2176,205.3953,79.446,346.4826,-0.0065381,-0.00657738,0.0,0 STARLINK-3304,1 50161U 21125F   22019.91667824 -.00657738  00000-0 -65381-2 0  9994,2 50161  53.2176 205.3953 0001055  79.4460 346.4826 15.67090076  7929,6745.371,91.89,367.948,366.525,0.0
50161.0,STARLINK-3304,PAYLOAD,2022-01-20 14:00:01,15.66038454,0.0001389,53.2175,202.1257,80.9152,147.1238,-0.0050566,-0.00497141,0.0,0 STARLINK-3304,1 50161U 21125F   22020.58334491 -.00497141  00000-0 -50566-2 0  9999,2 50161  53.2175 202.1257 0001389  80.9152 147.1238 15.66038454  3677,6748.391,91.952,371.193,369.318,0.0
50161.0,STARLINK-3304,PAYLOAD,2022-01-20 22:00:00,15.65690603,0.0001137,53.2174,200.4944,72.3402,235.8178,-0.0069181,-0.00657575,0.0,0 STARLINK-3304,1 50161U 21125F   22020.91667824 -.00657575  00000-0 -69181-2 0  9997,2 50161  53.2174 200.4944 0001137  72.3402 235.8178 15.65690603  8081,6749.39,91.972,372.023,370.48800000000006,0.0
50161.0,STARLINK-3304,PAYLOAD,2022-01-21 14:00:01,15.64758926,0.0001239,53.2174,197.231,59.5479,47.2938,-0.0072079,-0.0065979,0.0,0 STARLINK-3304,1 50161U 21125F   22021.58334491 -.00659790  00000-0 -72079-2 0  9993,2 50161  53.2174 197.2310 0001239  59.5479  47.2938 15.64758926  3700,6752.069,92.027,374.771,373.098,0.0
50161.0,STARLINK-3304,PAYLOAD,2022-01-21 22:00:00,15.64287228,0.0001296,53.2174,195.6035,63.8392,121.504,-0.0072394999999999,-0.00651029,0.0,0 STARLINK-3304,1 50161U 21125F   22021.91667824 -.00651029  00000-0 -72395-2 0  9997,2 50161  53.2174 195.6035 0001296  63.8392 121.5040 15.64287228  8247,6753.426,92.055,376.167,374.416,0.0
50161.0,STARLINK-3304,PAYLOAD,2022-01-22 14:00:01,15.63256828,0.0001123,53.2178,192.3477,78.5819,262.1331,-0.0059479,-0.00521693,0.0,0 STARLINK-3304,1 50161U 21125F   22022.58334491 -.00521693  00000-0 -59479-2 0  9993,2 50161  53.2178 192.3477 0001123  78.5819 262.1331 15.63256828  3668,6756.394,92.115,379.017,377.5,0.0
50161.0,STARLINK-3304,PAYLOAD,2022-01-22 22:00:00,15.62889597,0.0001192,53.2173,190.7229,56.1893,1.2911,-0.007692,-0.00654184,0.0,0 STARLINK-3304,1 50161U 21125F   22022.91667824 -.00654184  00000-0 -76920-2 0  9991,2 50161  53.2173 190.7229 0001192  56.1893   1.2911 15.62889597  8395,6757.4519999999975,92.137,380.12300000000016,378.512,0.0
50161.0,STARLINK-3304,PAYLOAD,2022-01-23 14:00:01,15.61958218,0.0001416,53.2175,187.4733,56.4376,152.9986,-0.0080158,-0.00657062,0.0,0 STARLINK-3304,1 50161U 21125F   22023.58334491 -.00657062  00000-0 -80158-2 0  9992,2 50161  53.2175 187.4733 0001416  56.4376 152.9986 15.61958218  3698,6760.138000000001,92.192,382.96,381.046,0.0
50161.0,STARLINK-3304,PAYLOAD,2022-01-23 22:00:00,15.61489929,0.0001252,53.2173,185.8524,60.0281,224.5445,-0.0081175,-0.00653603,0.0,0 STARLINK-3304,1 50161U 21125F   22023.91667824 -.00653603  00000-0 -81175-2 0  9995,2 50161  53.2173 185.8524 0001252  60.0281 224.5445 15.61489929  8554,6761.49,92.22,384.201,382.508,0.0
50161.0,STARLINK-3304,PAYLOAD,2022-01-24 14:00:01,15.60560193,0.0001243,53.2175,182.61,54.585,18.579,-0.0085024,-0.0065983,0.0,0 STARLINK-3304,1 50161U 21125F   22024.58334491 -.00659830  00000-0 -85024-2 0  9995,2 50161  53.2175 182.6100 0001243  54.5850  18.5790 15.60560193  3697,6764.175,92.275,386.881,385.199,0.0
50161.0,STARLINK-3304,PAYLOAD,2022-01-24 22:00:00,15.60089951,0.0001327,53.2173,180.992,57.61600000000001,89.0034,-0.0085627,-0.00653126,0.0,0 STARLINK-3304,1 50161U 21125F   22024.91667824 -.00653126  00000-0 -85627-2 0  9992,2 50161  53.2173 180.9920 0001327  57.6160  89.0034 15.60089951  8717,6765.534000000002,92.302,388.297,386.501,0.0
50161.0,STARLINK-3304,PAYLOAD,2022-01-25 14:00:01,15.59159445,0.0001367,53.2177,177.7566,52.7399,239.1072,-0.0089387,-0.00657545,0.0,0 STARLINK-3304,1 50161U 21125F   22025.58334491 -.00657545  00000-0 -89387-2 0  9993,2 50161  53.2177 177.7566 0001367  52.7399 239.1072 15.59159445  3679,6768.226,92.357,391.016,389.165,0.0
50161.0,STARLINK-3304,PAYLOAD,2022-01-25 22:00:00,15.58692661,0.0001133,53.2172,176.142,60.4233,303.1959,-0.0090807,-0.00656268,0.0,0 STARLINK-3304,1 50161U 21125F   22025.91667824 -.00656268  00000-0 -90807-2 0  9999,2 50161  53.2172 176.1420 0001133  60.4233 303.1959 15.58692661  8863,6769.5769999999975,92.385,392.209,390.675,0.0
50161.0,STARLINK-3304,PAYLOAD,2022-01-26 14:00:01,15.57758334,0.0001523,53.2173,172.9134,46.2642,99.2205,-0.0093925,-0.00655314,0.0,0 STARLINK-3304,1 50161U 21125F   22026.58334491 -.00655314  00000-0 -93925-2 0  9999,2 50161  53.2173 172.9134 0001523  46.2642  99.2205 15.57758334  3703,6772.283,92.441,395.18,393.117,0.0
50161.0,STARLINK-3304,PAYLOAD,2022-01-26 21:04:45,15.58282816,0.0001565999999999,53.218,171.4953,38.8718,321.2409,-0.0039486999999999,-0.00294107,0.0,0 STARLINK-3304,1 50161U 21125F   22026.87829934 -.00294107  00000-0 -39487-2 0  9994,2 50161  53.2180 171.4953 0001566  38.8718 321.2409 15.58282816  9496,6770.764,92.409,393.689,391.568,0.0
50161.0,STARLINK-3304,PAYLOAD,2022-01-26 22:00:00,15.57293001,0.0001277,53.2171,171.30200000000005,66.8543,148.7203,-0.0095829,-0.006568,0.0,0 STARLINK-3304,1 50161U 21125F   22026.91667824 -.00656800  00000-0 -95829-2 0  9991,2 50161  53.2171 171.3020 0001277  66.8543 148.7203 15.57293001  9026,6773.632,92.468,396.362,394.632,0.0
50161.0,STARLINK-3304,PAYLOAD,2022-01-27 14:01:40,15.57219946,0.0001914,53.2182,168.0867,37.7986,322.3161,-0.0038238,-0.00274346,0.0,0 STARLINK-3304,1 50161U 21125F   22027.58449352 -.00274346  00000-0 -38238-2 0  9991,2 50161  53.2182 168.0867 0001914  37.7986 322.3161 15.57219946  9609,6773.844,92.472,397.006,394.413,0.0
50161.0,STARLINK-3304,PAYLOAD,2022-01-27 22:00:00,15.55893471,0.0001189,53.2171,166.472,55.8819,6.602,-0.010093,-0.00656457,0.0,0 STARLINK-3304,1 50161U 21125F   22027.91667824 -.00656457  00000-0 -10093-1 0  9999,2 50161  53.2171 166.4720 0001189  55.8819   6.6020 15.55893471  9174,6777.694,92.551,400.365,398.753,0.0
50161.0,STARLINK-3304,PAYLOAD,2022-01-28 12:00:00,15.55077637,0.0001611,53.2176,163.6584,37.2602,53.5913,-0.010436,-0.00658425,0.0,0 STARLINK-3304,1 50161U 21125F   22028.50001157 -.00658425  00000-0 -10436-1 0  9994,2 50161  53.2176 163.6584 0001611  37.2602  53.5913 15.55077637  3679,6780.064,92.6,403.021,400.837,0.0
50161.0,STARLINK-3304,PAYLOAD,2022-01-28 22:00:00,15.54495088,0.0001317,53.217,161.6521,60.7024,203.645,-0.010678,-0.00659237,0.0,0 STARLINK-3304,1 50161U 21125F   22028.91667824 -.00659237  00000-0 -10678-1 0  9998,2 50161  53.2170 161.6521 0001317  60.7024 203.6450 15.54495088  9330,6781.7580000000025,92.635,404.516,402.73,0.0
50161.0,STARLINK-3304,PAYLOAD,2022-01-29 14:00:01,15.53561243,0.0001545,53.2173,158.4446,38.1848,357.9356,-0.011027,-0.00657984,0.0,0 STARLINK-3304,1 50161U 21125F   22029.58334491 -.00657984  00000-0 -11027-1 0  9999,2 50161  53.2173 158.4446 0001545  38.1848 357.9356 15.53561243  3696,6784.475,92.69,407.388,405.292,0.0
50161.0,STARLINK-3304,PAYLOAD,2022-01-29 22:00:00,15.53093933,0.0001317,53.217,156.8426,53.4099,47.756,-0.011186,-0.00656282,0.0,0 STARLINK-3304,1 50161U 21125F   22029.91667824 -.00656282  00000-0 -11186-1 0  9991,2 50161  53.2170 156.8426 0001317  53.4099  47.7560 15.53093933  3707,6785.8359999999975,92.718,408.595,406.807,0.0
50161.0,STARLINK-3304,PAYLOAD,2022-01-30 06:00:00,15.5262785,0.0001477,53.217,155.2398,50.1597,115.492,-0.011409,-0.00657993,0.0,0 STARLINK-3304,1 50161U 21125F   22030.25001157 -.00657993  00000-0 -11409-1 0  9999,2 50161  53.2170 155.2398 0001477  50.1597 115.4920 15.52627850  9543,6787.194,92.746,410.061,408.056,0.0
50161.0,STARLINK-3304,PAYLOAD,2022-01-30 14:00:01,15.52158702,0.0001662,53.2172,153.6417,45.66,183.9158,-0.011518,-0.00653482,0.0,0 STARLINK-3304,1 50161U 21125F   22030.58334491 -.00653482  00000-0 -11518-1 0  9995,2 50161  53.2172 153.6417 0001662  45.6600 183.9158 15.52158702  3709,6788.562,92.774,411.555,409.298,0.0
